{
  "type": "FeatureCollection",
  "features": [
    {
      "type": "Feature",
      "properties": {
        "norad_id": 66822,
        "name": "STARLINK-35958",
        "group": "last-30-days",
        "lat": -47.95160356594579,
        "lon": 158.40882131956226,
        "alt_km": 400.8096622851772,
        "timestamp": "2025-12-18T15:47:09.960561+00:00",
        "meta_object_name": "STARLINK-35958",
        "meta_object_id": "2025-280B",
        "meta_epoch": "2025-12-18T06:00:02.999808",
        "meta_mean_motion": 15.58755942,
        "meta_eccentricity": 0.00034432,
        "meta_inclination": 70.0072,
        "meta_ra_of_asc_node": 183.3418,
        "meta_arg_of_pericenter": 278.3786,
        "meta_mean_anomaly": 263.5955,
        "meta_ephemeris_type": 0,
        "meta_classification_type": "U",
        "meta_norad_cat_id": 66822,
        "meta_element_set_no": 999,
        "meta_rev_at_epoch": 378,
        "meta_bstar": -0.030183462,
        "meta_mean_motion_dot": -0.02045606,
        "meta_mean_motion_ddot": 0,
        "tle_line1": "1 66822U 25280B   25352.25003472 -.02045606  00000+0 -30183-1 0  9991",
        "tle_line2": "2 66822  70.0072 183.3418 0003443 278.3786 263.5955 15.58755942  3789"
      },
      "geometry": {
        "type": "Point",
        "coordinates": [
          158.40882131956226,
          -47.95160356594579
        ]
      }
    },
    {
      "type": "Feature",
      "properties": {
        "norad_id": 66823,
        "name": "STARLINK-35957",
        "group": "last-30-days",
        "lat": -46.29567985949822,
        "lon": 159.82203765694942,
        "alt_km": 400.8148928280534,
        "timestamp": "2025-12-18T15:47:09.960571+00:00",
        "meta_object_name": "STARLINK-35957",
        "meta_object_id": "2025-280C",
        "meta_epoch": "2025-12-18T06:00:02.999808",
        "meta_mean_motion": 15.58755578,
        "meta_eccentricity": 0.00034074,
        "meta_inclination": 70.0071,
        "meta_ra_of_asc_node": 183.3389,
        "meta_arg_of_pericenter": 278.2702,
        "meta_mean_anomaly": 265.6217,
        "meta_ephemeris_type": 0,
        "meta_classification_type": "U",
        "meta_norad_cat_id": 66823,
        "meta_element_set_no": 999,
        "meta_rev_at_epoch": 378,
        "meta_bstar": -0.030166045,
        "meta_mean_motion_dot": -0.02044517,
        "meta_mean_motion_ddot": 0,
        "tle_line1": "1 66823U 25280C   25352.25003472 -.02044517  00000+0 -30166-1 0  9993",
        "tle_line2": "2 66823  70.0071 183.3389 0003407 278.2702 265.6217 15.58755578  3782"
      },
      "geometry": {
        "type": "Point",
        "coordinates": [
          159.82203765694942,
          -46.29567985949822
        ]
      }
    },
    {
      "type": "Feature",
      "properties": {
        "norad_id": 66824,
        "name": "STARLINK-35896",
        "group": "last-30-days",
        "lat": -44.62260705225207,
        "lon": 161.15327381744635,
        "alt_km": 400.91244052527054,
        "timestamp": "2025-12-18T15:47:09.960581+00:00",
        "meta_object_name": "STARLINK-35896",
        "meta_object_id": "2025-280D",
        "meta_epoch": "2025-12-18T06:00:02.999808",
        "meta_mean_motion": 15.58755677,
        "meta_eccentricity": 0.00032991,
        "meta_inclination": 70.0071,
        "meta_ra_of_asc_node": 183.3369,
        "meta_arg_of_pericenter": 275.578,
        "meta_mean_anomaly": 270.2295,
        "meta_ephemeris_type": 0,
        "meta_classification_type": "U",
        "meta_norad_cat_id": 66824,
        "meta_element_set_no": 999,
        "meta_rev_at_epoch": 378,
        "meta_bstar": -0.03011934,
        "meta_mean_motion_dot": -0.02041657,
        "meta_mean_motion_ddot": 0,
        "tle_line1": "1 66824U 25280D   25352.25003472 -.02041657  00000+0 -30119-1 0  9994",
        "tle_line2": "2 66824  70.0071 183.3369 0003299 275.5780 270.2295 15.58755677  3784"
      },
      "geometry": {
        "type": "Point",
        "coordinates": [
          161.15327381744635,
          -44.62260705225207
        ]
      }
    },
    {
      "type": "Feature",
      "properties": {
        "norad_id": 66825,
        "name": "STARLINK-35476",
        "group": "last-30-days",
        "lat": -42.92944232592633,
        "lon": 162.41360658561217,
        "alt_km": 401.13173408793773,
        "timestamp": "2025-12-18T15:47:09.960591+00:00",
        "meta_object_name": "STARLINK-35476",
        "meta_object_id": "2025-280E",
        "meta_epoch": "2025-12-18T06:00:02.999808",
        "meta_mean_motion": 15.58764973,
        "meta_eccentricity": 0.00032322,
        "meta_inclination": 70.0076,
        "meta_ra_of_asc_node": 183.3345,
        "meta_arg_of_pericenter": 268.1556,
        "meta_mean_anomaly": 279.568,
        "meta_ephemeris_type": 0,
        "meta_classification_type": "U",
        "meta_norad_cat_id": 66825,
        "meta_element_set_no": 999,
        "meta_rev_at_epoch": 363,
        "meta_bstar": -0.030288007,
        "meta_mean_motion_dot": -0.02052212,
        "meta_mean_motion_ddot": 0,
        "tle_line1": "1 66825U 25280E   25352.25003472 -.02052212  00000+0 -30288-1 0  9991",
        "tle_line2": "2 66825  70.0076 183.3345 0003232 268.1556 279.5680 15.58764973  3633"
      },
      "geometry": {
        "type": "Point",
        "coordinates": [
          162.41360658561217,
          -42.92944232592633
        ]
      }
    },
    {
      "type": "Feature",
      "properties": {
        "norad_id": 66826,
        "name": "STARLINK-35898",
        "group": "last-30-days",
        "lat": -41.235437422269136,
        "lon": 163.59622919794575,
        "alt_km": 400.88270787976217,
        "timestamp": "2025-12-18T15:47:09.960603+00:00",
        "meta_object_name": "STARLINK-35898",
        "meta_object_id": "2025-280F",
        "meta_epoch": "2025-12-18T06:00:02.999808",
        "meta_mean_motion": 15.58758115,
        "meta_eccentricity": 0.00032752,
        "meta_inclination": 70.0071,
        "meta_ra_of_asc_node": 183.3317,
        "meta_arg_of_pericenter": 275.2935,
        "meta_mean_anomaly": 274.347,
        "meta_ephemeris_type": 0,
        "meta_classification_type": "U",
        "meta_norad_cat_id": 66826,
        "meta_element_set_no": 999,
        "meta_rev_at_epoch": 378,
        "meta_bstar": -0.030135435,
        "meta_mean_motion_dot": -0.02042754,
        "meta_mean_motion_ddot": 0,
        "tle_line1": "1 66826U 25280F   25352.25003472 -.02042754  00000+0 -30135-1 0  9993",
        "tle_line2": "2 66826  70.0071 183.3317 0003275 275.2935 274.3470 15.58758115  3782"
      },
      "geometry": {
        "type": "Point",
        "coordinates": [
          163.59622919794575,
          -41.235437422269136
        ]
      }
    },
    {
      "type": "Feature",
      "properties": {
        "norad_id": 66827,
        "name": "STARLINK-35959",
        "group": "last-30-days",
        "lat": -39.52194485189745,
        "lon": 164.72499875068047,
        "alt_km": 400.87279740702616,
        "timestamp": "2025-12-18T15:47:09.960615+00:00",
        "meta_object_name": "STARLINK-35959",
        "meta_object_id": "2025-280G",
        "meta_epoch": "2025-12-18T06:00:02.999808",
        "meta_mean_motion": 15.58756674,
        "meta_eccentricity": 0.00033659,
        "meta_inclination": 70.0071,
        "meta_ra_of_asc_node": 183.3295,
        "meta_arg_of_pericenter": 273.2202,
        "meta_mean_anomaly": 278.3407,
        "meta_ephemeris_type": 0,
        "meta_classification_type": "U",
        "meta_norad_cat_id": 66827,
        "meta_element_set_no": 999,
        "meta_rev_at_epoch": 378,
        "meta_bstar": -0.030145383,
        "meta_mean_motion_dot": -0.02043329,
        "meta_mean_motion_ddot": 0,
        "tle_line1": "1 66827U 25280G   25352.25003472 -.02043329  00000+0 -30145-1 0  9994",
        "tle_line2": "2 66827  70.0071 183.3295 0003365 273.2202 278.3407 15.58756674  3785"
      },
      "geometry": {
        "type": "Point",
        "coordinates": [
          164.72499875068047,
          -39.52194485189745
        ]
      }
    },
    {
      "type": "Feature",
      "properties": {
        "norad_id": 66828,
        "name": "STARLINK-35982",
        "group": "last-30-days",
        "lat": -36.07013100965572,
        "lon": 166.8209166656803,
        "alt_km": 400.7614525264862,
        "timestamp": "2025-12-18T15:47:09.960628+00:00",
        "meta_object_name": "STARLINK-35982",
        "meta_object_id": "2025-280H",
        "meta_epoch": "2025-12-18T06:00:02.999808",
        "meta_mean_motion": 15.58754749,
        "meta_eccentricity": 0.00033781,
        "meta_inclination": 70.0071,
        "meta_ra_of_asc_node": 183.3251,
        "meta_arg_of_pericenter": 274.232,
        "meta_mean_anomaly": 281.161,
        "meta_ephemeris_type": 0,
        "meta_classification_type": "U",
        "meta_norad_cat_id": 66828,
        "meta_element_set_no": 999,
        "meta_rev_at_epoch": 378,
        "meta_bstar": -0.030050791,
        "meta_mean_motion_dot": -0.02037606,
        "meta_mean_motion_ddot": 0,
        "tle_line1": "1 66828U 25280H   25352.25003472 -.02037606  00000+0 -30051-1 0  9992",
        "tle_line2": "2 66828  70.0071 183.3251 0003378 274.2320 281.1610 15.58754749  3783"
      },
      "geometry": {
        "type": "Point",
        "coordinates": [
          166.8209166656803,
          -36.07013100965572
        ]
      }
    }
  ]
}